[{"OBJECT_NAME":"STARLINK-3623","OBJECT_ID":"2022-017E","EPOCH":"2026-03-09T22:24:27.189792","MEAN_MOTION":15.08844213,"ECCENTRICITY":0.00013745,"INCLINATION":53.2193,"RA_OF_ASC_NODE":338.0263,"ARG_OF_PERICENTER":78.8067,"MEAN_ANOMALY":281.3079,"EPHEMERIS_TYPE":0,"CLASSIFICATION_TYPE":"U","NORAD_CAT_ID":51772,"ELEMENT_SET_NO":999,"REV_AT_EPOCH":22263,"BSTAR":-4.0019383e-5,"MEAN_MOTION_DOT":-9.25e-6,"MEAN_MOTION_DDOT":0},{"OBJECT_NAME":"IRIDIUM 5","OBJECT_ID":"1997-020D","EPOCH":"2026-03-09T18:04:20.752608","MEAN_MOTION":14.97634702,"ECCENTRICITY":0.00996159,"INCLINATION":86.3893,"RA_OF_ASC_NODE":320.9794,"ARG_OF_PERICENTER":262.9032,"MEAN_ANOMALY":96.0864,"EPHEMERIS_TYPE":0,"CLASSIFICATION_TYPE":"U","NORAD_CAT_ID":24795,"ELEMENT_SET_NO":999,"REV_AT_EPOCH":52516,"BSTAR":0.00037671843,"MEAN_MOTION_DOT":4.91e-5,"MEAN_MOTION_DDOT":0}]
